[{"OBJECT_NAME":"ONEWEB-0446","OBJECT_ID":"2022-012U","EPOCH":"2025-07-27T17:27:50.437440","MEAN_MOTION":13.10372472,"ECCENTRICITY":0.0001671,"INCLINATION":87.8805,"RA_OF_ASC_NODE":101.0049,"ARG_OF_PERICENTER":70.9988,"MEAN_ANOMALY":289.1321,"EPHEMERIS_TYPE":0,"CLASSIFICATION_TYPE":"U","NORAD_CAT_ID":51640,"ELEMENT_SET_NO":999,"REV_AT_EPOCH":16683,"BSTAR":-0.0018953,"MEAN_MOTION_DOT":-6.49e-6,"MEAN_MOTION_DDOT":0},{"OBJECT_NAME":"ONEWEB-0448","OBJECT_ID":"2022-012V","EPOCH":"2025-07-28T04:34:44.106528","MEAN_MOTION":13.10374143,"ECCENTRICITY":0.000187,"INCLINATION":87.8807,"RA_OF_ASC_NODE":100.9124,"ARG_OF_PERICENTER":78.9097,"MEAN_ANOMALY":281.2241,"EPHEMERIS_TYPE":0,"CLASSIFICATION_TYPE":"U","NORAD_CAT_ID":51641,"ELEMENT_SET_NO":999,"REV_AT_EPOCH":16815,"BSTAR":-0.0016376,"MEAN_MOTION_DOT":-5.59e-6,"MEAN_MOTION_DDOT":0},{"OBJECT_NAME":"ONEWEB-0449","OBJECT_ID":"2022-012W","EPOCH":"2025-07-27T17:42:11.142144","MEAN_MOTION":13.10375218,"ECCENTRICITY":0.0001723,"INCLINATION":87.8806,"RA_OF_ASC_NODE":100.9754,"ARG_OF_PERICENTER":92.798,"MEAN_ANOMALY":267.3345,"EPHEMERIS_TYPE":0,"CLASSIFICATION_TYPE":"U","NORAD_CAT_ID":51642,"ELEMENT_SET_NO":999,"REV_AT_EPOCH":16681,"BSTAR":-0.0015505,"MEAN_MOTION_DOT":-5.29e-6,"MEAN_MOTION_DDOT":0},{"OBJECT_NAME":"ONEWEB-0451","OBJECT_ID":"2022-012X","EPOCH":"2025-07-27T15:46:59.974176","MEAN_MOTION":13.17650179,"ECCENTRICITY":0.0001724,"INCLINATION":87.9035,"RA_OF_ASC_NODE":70.4241,"ARG_OF_PERICENTER":87.5563,"MEAN_ANOMALY":272.5766,"EPHEMERIS_TYPE":0,"CLASSIFICATION_TYPE":"U","NORAD_CAT_ID":51643,"ELEMENT_SET_NO":999,"REV_AT_EPOCH":17092,"BSTAR":-0.00066578,"MEAN_MOTION_DOT":-2.46e-6,"MEAN_MOTION_DDOT":0},{"OBJECT_NAME":"ONEWEB-0452","OBJECT_ID":"2022-012Y","EPOCH":"2025-07-27T21:12:36.948672","MEAN_MOTION":13.17649036,"ECCENTRICITY":0.000189,"INCLINATION":87.9037,"RA_OF_ASC_NODE":70.4432,"ARG_OF_PERICENTER":92.3073,"MEAN_ANOMALY":267.8274,"EPHEMERIS_TYPE":0,"CLASSIFICATION_TYPE":"U","NORAD_CAT_ID":51644,"ELEMENT_SET_NO":999,"REV_AT_EPOCH":17096,"BSTAR":-0.00074189,"MEAN_MOTION_DOT":-2.75e-6,"MEAN_MOTION_DDOT":0},{"OBJECT_NAME":"ONEWEB-0456","OBJECT_ID":"2022-012AA","EPOCH":"2025-07-27T17:56:32.204544","MEAN_MOTION":13.10377416,"ECCENTRICITY":0.0001998,"INCLINATION":87.8809,"RA_OF_ASC_NODE":100.9312,"ARG_OF_PERICENTER":73.7727,"MEAN_ANOMALY":286.362,"EPHEMERIS_TYPE":0,"CLASSIFICATION_TYPE":"U","NORAD_CAT_ID":51646,"ELEMENT_SET_NO":999,"REV_AT_EPOCH":16685,"BSTAR":6.8759e-5,"MEAN_MOTION_DOT":3.7e-7,"MEAN_MOTION_DDOT":0},{"OBJECT_NAME":"ONEWEB-0457","OBJECT_ID":"2022-012AB","EPOCH":"2025-07-27T21:02:58.469568","MEAN_MOTION":13.10371487,"ECCENTRICITY":0.0001503,"INCLINATION":87.8803,"RA_OF_ASC_NODE":100.9635,"ARG_OF_PERICENTER":83.8267,"MEAN_ANOMALY":276.3031,"EPHEMERIS_TYPE":0,"CLASSIFICATION_TYPE":"U","NORAD_CAT_ID":51647,"ELEMENT_SET_NO":999,"REV_AT_EPOCH":16687,"BSTAR":-0.0015014,"MEAN_MOTION_DOT":-5.11e-6,"MEAN_MOTION_DDOT":0},{"OBJECT_NAME":"ONEWEB-0458","OBJECT_ID":"2022-012AC","EPOCH":"2025-07-28T04:53:51.368064","MEAN_MOTION":13.10374735,"ECCENTRICITY":0.0001889,"INCLINATION":87.8796,"RA_OF_ASC_NODE":100.8737,"ARG_OF_PERICENTER":82.3265,"MEAN_ANOMALY":277.8077,"EPHEMERIS_TYPE":0,"CLASSIFICATION_TYPE":"U","NORAD_CAT_ID":51648,"ELEMENT_SET_NO":999,"REV_AT_EPOCH":16817,"BSTAR":-0.00051821,"MEAN_MOTION_DOT":-1.68e-6,"MEAN_MOTION_DDOT":0},{"OBJECT_NAME":"ONEWEB-0461","OBJECT_ID":"2022-012AD","EPOCH":"2025-07-27T21:44:12.838560","MEAN_MOTION":13.17649492,"ECCENTRICITY":0.0001698,"INCLINATION":87.9031,"RA_OF_ASC_NODE":70.3884,"ARG_OF_PERICENTER":81.0009,"MEAN_ANOMALY":279.1314,"EPHEMERIS_TYPE":0,"CLASSIFICATION_TYPE":"U","NORAD_CAT_ID":51649,"ELEMENT_SET_NO":999,"REV_AT_EPOCH":17118,"BSTAR":0.00016816,"MEAN_MOTION_DOT":7.8e-7,"MEAN_MOTION_DDOT":0},{"OBJECT_NAME":"ONEWEB-0463","OBJECT_ID":"2022-012AE","EPOCH":"2025-07-27T21:17:28.993632","MEAN_MOTION":13.17650347,"ECCENTRICITY":0.0001796,"INCLINATION":87.9029,"RA_OF_ASC_NODE":70.4565,"ARG_OF_PERICENTER":84.3784,"MEAN_ANOMALY":275.7553,"EPHEMERIS_TYPE":0,"CLASSIFICATION_TYPE":"U","NORAD_CAT_ID":51650,"ELEMENT_SET_NO":999,"REV_AT_EPOCH":17096,"BSTAR":7.892e-5,"MEAN_MOTION_DOT":4.4e-7,"MEAN_MOTION_DDOT":0},{"OBJECT_NAME":"ONEWEB-0464","OBJECT_ID":"2022-012AF","EPOCH":"2025-07-27T17:49:21.415872","MEAN_MOTION":13.1037643,"ECCENTRICITY":0.0002137,"INCLINATION":87.8811,"RA_OF_ASC_NODE":100.9999,"ARG_OF_PERICENTER":73.0669,"MEAN_ANOMALY":287.0692,"EPHEMERIS_TYPE":0,"CLASSIFICATION_TYPE":"U","NORAD_CAT_ID":51651,"ELEMENT_SET_NO":999,"REV_AT_EPOCH":16683,"BSTAR":-0.00086159,"MEAN_MOTION_DOT":-2.88e-6,"MEAN_MOTION_DDOT":0},{"OBJECT_NAME":"ONEWEB-0468","OBJECT_ID":"2022-012AG","EPOCH":"2025-07-27T17:58:54.856128","MEAN_MOTION":13.10376024,"ECCENTRICITY":0.0001883,"INCLINATION":87.8813,"RA_OF_ASC_NODE":100.99,"ARG_OF_PERICENTER":77.0202,"MEAN_ANOMALY":283.1135,"EPHEMERIS_TYPE":0,"CLASSIFICATION_TYPE":"U","NORAD_CAT_ID":51652,"ELEMENT_SET_NO":999,"REV_AT_EPOCH":16681,"BSTAR":-0.00030165,"MEAN_MOTION_DOT":-9.3e-7,"MEAN_MOTION_DDOT":0},{"OBJECT_NAME":"ONEWEB-0473","OBJECT_ID":"2022-012AH","EPOCH":"2025-07-27T17:37:24.067776","MEAN_MOTION":13.10374056,"ECCENTRICITY":0.0001925,"INCLINATION":87.881,"RA_OF_ASC_NODE":100.9967,"ARG_OF_PERICENTER":79.5173,"MEAN_ANOMALY":280.6171,"EPHEMERIS_TYPE":0,"CLASSIFICATION_TYPE":"U","NORAD_CAT_ID":51653,"ELEMENT_SET_NO":999,"REV_AT_EPOCH":16681,"BSTAR":-0.0019363,"MEAN_MOTION_DOT":-6.63e-6,"MEAN_MOTION_DDOT":0},{"OBJECT_NAME":"ONEWEB-0474","OBJECT_ID":"2022-012AJ","EPOCH":"2025-07-27T17:25:27.238944","MEAN_MOTION":13.10372029,"ECCENTRICITY":0.0002093,"INCLINATION":87.8807,"RA_OF_ASC_NODE":100.958,"ARG_OF_PERICENTER":78.3093,"MEAN_ANOMALY":281.8269,"EPHEMERIS_TYPE":0,"CLASSIFICATION_TYPE":"U","NORAD_CAT_ID":51654,"ELEMENT_SET_NO":999,"REV_AT_EPOCH":16680,"BSTAR":-0.0016669,"MEAN_MOTION_DOT":-5.69e-6,"MEAN_MOTION_DDOT":0},{"OBJECT_NAME":"ONEWEB-0475","OBJECT_ID":"2022-012AK","EPOCH":"2025-07-27T21:34:30.523296","MEAN_MOTION":13.17648413,"ECCENTRICITY":0.0002529,"INCLINATION":87.9035,"RA_OF_ASC_NODE":70.4346,"ARG_OF_PERICENTER":91.7715,"MEAN_ANOMALY":268.3706,"EPHEMERIS_TYPE":0,"CLASSIFICATION_TYPE":"U","NORAD_CAT_ID":51655,"ELEMENT_SET_NO":999,"REV_AT_EPOCH":17098,"BSTAR":6.7063e-6,"MEAN_MOTION_DOT":1.6e-7,"MEAN_MOTION_DDOT":0},{"OBJECT_NAME":"ONEWEB-0490","OBJECT_ID":"2022-138A","EPOCH":"2025-07-28T04:03:57.170880","MEAN_MOTION":13.19726347,"ECCENTRICITY":0.0001985,"INCLINATION":87.9229,"RA_OF_ASC_NODE":9.3588,"ARG_OF_PERICENTER":89.0537,"MEAN_ANOMALY":271.0823,"EPHEMERIS_TYPE":0,"CLASSIFICATION_TYPE":"U","NORAD_CAT_ID":54113,"ELEMENT_SET_NO":999,"REV_AT_EPOCH":13496,"BSTAR":0.00016015,"MEAN_MOTION_DOT":7.7e-7,"MEAN_MOTION_DDOT":0},{"OBJECT_NAME":"ONEWEB-0492","OBJECT_ID":"2022-138B","EPOCH":"2025-07-27T21:23:40.594848","MEAN_MOTION":13.19725134,"ECCENTRICITY":0.0001839,"INCLINATION":87.9224,"RA_OF_ASC_NODE":9.4379,"ARG_OF_PERICENTER":86.8508,"MEAN_ANOMALY":273.2835,"EPHEMERIS_TYPE":0,"CLASSIFICATION_TYPE":"U","NORAD_CAT_ID":54114,"ELEMENT_SET_NO":999,"REV_AT_EPOCH":13406,"BSTAR":0.00014998,"MEAN_MOTION_DOT":7.3e-7,"MEAN_MOTION_DDOT":0}]
