ONEWEB-0446             
1 51640U 22012U   25208.72766710 -.00000649  00000+0 -18953-2 0  9994
2 51640  87.8805 101.0049 0001671  70.9988 289.1321 13.10372472166835
ONEWEB-0448             
1 51641U 22012V   25209.19078827 -.00000559  00000+0 -16376-2 0  9999
2 51641  87.8807 100.9124 0001870  78.9097 281.2241 13.10374143168158
ONEWEB-0449             
1 51642U 22012W   25208.73762896 -.00000529  00000+0 -15505-2 0  9995
2 51642  87.8806 100.9754 0001723  92.7980 267.3345 13.10375218166814
ONEWEB-0451             
1 51643U 22012X   25208.65763859 -.00000246  00000+0 -66578-3 0  9990
2 51643  87.9035  70.4241 0001724  87.5563 272.5766 13.17650179170923
ONEWEB-0452             
1 51644U 22012Y   25208.88376098 -.00000275  00000+0 -74189-3 0  9990
2 51644  87.9037  70.4432 0001890  92.3073 267.8274 13.17649036170967
ONEWEB-0456             
1 51646U 22012AA  25208.74759496  .00000037  00000+0  68759-4 0  9995
2 51646  87.8809 100.9312 0001998  73.7727 286.3620 13.10377416166856
ONEWEB-0457             
1 51647U 22012AB  25208.87706562 -.00000511  00000+0 -15014-2 0  9999
2 51647  87.8803 100.9635 0001503  83.8267 276.3031 13.10371487166871
ONEWEB-0458             
1 51648U 22012AC  25209.20406676 -.00000168  00000+0 -51821-3 0  9996
2 51648  87.8796 100.8737 0001889  82.3265 277.8077 13.10374735168174
ONEWEB-0461             
1 51649U 22012AD  25208.90570415  .00000078  00000+0  16816-3 0  9999
2 51649  87.9031  70.3884 0001698  81.0009 279.1314 13.17649492171188
ONEWEB-0463             
1 51650U 22012AE  25208.88714113  .00000044  00000+0  78920-4 0  9991
2 51650  87.9029  70.4565 0001796  84.3784 275.7553 13.17650347170962
ONEWEB-0464             
1 51651U 22012AF  25208.74260898 -.00000288  00000+0 -86159-3 0  9997
2 51651  87.8811 100.9999 0002137  73.0669 287.0692 13.10376430166830
ONEWEB-0468             
1 51652U 22012AG  25208.74924602 -.00000093  00000+0 -30165-3 0  9998
2 51652  87.8813 100.9900 0001883  77.0202 283.1135 13.10376024166815
ONEWEB-0473             
1 51653U 22012AH  25208.73430634 -.00000663  00000+0 -19363-2 0  9994
2 51653  87.8810 100.9967 0001925  79.5173 280.6171 13.10374056166812
ONEWEB-0474             
1 51654U 22012AJ  25208.72600971 -.00000569  00000+0 -16669-2 0  9998
2 51654  87.8807 100.9580 0002093  78.3093 281.8269 13.10372029166803
ONEWEB-0475             
1 51655U 22012AK  25208.89896439  .00000016  00000+0  67063-5 0  9995
2 51655  87.9035  70.4346 0002529  91.7715 268.3706 13.17648413170983
ONEWEB-0490             
1 54113U 22138A   25209.16941170  .00000077  00000+0  16015-3 0  9996
2 54113  87.9229   9.3588 0001985  89.0537 271.0823 13.19726347134960
ONEWEB-0492             
1 54114U 22138B   25208.89144207  .00000073  00000+0  14998-3 0  9996
2 54114  87.9224   9.4379 0001839  86.8508 273.2835 13.19725134134067
